{
    "links": {
        "self": "http://www.neowsapp.com/rest/v1/neo/3739248?api_key=iIulBulltgU6a56xZRHN4H3l9WmuAYTsLGpBGhQ2"
    },
    "id": "3739248",
    "neo_reference_id": "3739248",
    "name": "(2016 AC9)",
    "designation": "2016 AC9",
    "nasa_jpl_url": "http://ssd.jpl.nasa.gov/sbdb.cgi?sstr=3739248",
    "absolute_magnitude_h": 23.5,
    "estimated_diameter": {
        "kilometers": {
            "estimated_diameter_min": 0.0530340723,
            "estimated_diameter_max": 0.1185877909
        },
        "meters": {
            "estimated_diameter_min": 53.0340723319,
            "estimated_diameter_max": 118.5877908577
        },
        "miles": {
            "estimated_diameter_min": 0.0329538346,
            "estimated_diameter_max": 0.0736870142
        },
        "feet": {
            "estimated_diameter_min": 173.9963058693,
            "estimated_diameter_max": 389.0675677576
        }
    },
    "is_potentially_hazardous_asteroid": false,
    "close_approach_data": [
        {
            "close_approach_date": "1913-12-11",
            "close_approach_date_full": "1913-Dec-11 07:42",
            "epoch_date_close_approach": -1769012280000,
            "relative_velocity": {
                "kilometers_per_second": "5.3961726919",
                "kilometers_per_hour": "19426.2216909814",
                "miles_per_hour": "12070.698694599"
            },
            "miss_distance": {
                "astronomical": "0.1143049229",
                "lunar": "44.4646150081",
                "kilometers": "17099772.996354223",
                "miles": "10625306.2379373574"
            },
            "orbiting_body": "Earth"
        },
        {
            "close_approach_date": "2015-12-22",
            "close_approach_date_full": "2015-Dec-22 20:42",
            "epoch_date_close_approach": 1450816920000,
            "relative_velocity": {
                "kilometers_per_second": "6.8185218712",
                "kilometers_per_hour": "24546.6787362748",
                "miles_per_hour": "15252.3515736592"
            },
            "miss_distance": {
                "astronomical": "0.0910540974",
                "lunar": "35.4200438886",
                "kilometers": "13621499.025812538",
                "miles": "8464007.0134195044"
            },
            "orbiting_body": "Earth"
        }
    ],
    "orbital_data": {
        "orbit_id": "7",
        "orbit_determination_date": "2017-04-06 08:29:25",
        "first_observation_date": "2016-01-03",
        "last_observation_date": "2016-01-15",
        "data_arc_in_days": 12,
        "observations_used": 46,
        "orbit_uncertainty": "7",
        "minimum_orbit_intersection": ".0771571",
        "jupiter_tisserand_invariant": "4.456",
        "epoch_osculation": "2459000.5",
        "eccentricity": ".3119806101577833",
        "semi_major_axis": "1.510971702217272",
        "inclination": "8.703379197856622",
        "ascending_node_longitude": "280.9639262956184",
        "orbital_period": "678.395444870961",
        "perihelion_distance": "1.039577828628383",
        "perihelion_argument": "148.4790914278518",
        "aphelion_distance": "1.982365575806161",
        "perihelion_time": "2458719.088478403746",
        "mean_anomaly": "149.3349469554906",
        "mean_motion": ".5306639405110928",
        "equinox": "J2000",
        "orbit_class": {
            "orbit_class_type": "AMO",
            "orbit_class_description": "Near-Earth asteroid orbits similar to that of 1221 Amor",
            "orbit_class_range": "1.017 AU < q (perihelion) < 1.3 AU"
        }
    },
    "is_sentry_object": false
}